STARLINK-35710          
1 66212U 25244G   25323.58335648 -.02033946  00000+0 -41531-1 0  9994
2 66212  53.1607  25.2040 0001241  74.0408  60.5191 15.48961540  4611
STARLINK-34204          
1 66213U 25244H   25323.58335648 -.02008064  00000+0 -45278-1 0  9990
2 66213  53.1605  25.2165 0001035  62.1556  66.4598 15.46091479  4801
STARLINK-35714          
1 66214U 25244J   25323.58335648  .00109171  00000+0  19485-2 0  9990
2 66214  53.1603  25.1879 0001218  77.5295  64.7855 15.49238395  4488
STARLINK-35712          
1 66215U 25244K   25323.58335648  .00109689  00000+0  19576-2 0  9996
2 66215  53.1603  25.1801 0001065  77.1826  68.9672 15.49237644  4489
STARLINK-35709          
1 66216U 25244L   25323.58335648 -.02062910  00000+0 -42195-1 0  9998
2 66216  53.1605  25.2008 0001401  61.3137  75.1573 15.48960819  4482
STARLINK-35700          
1 66217U 25244M   25323.58335648  .00043939  00000+0  79388-3 0  9991
2 66217  53.1603  25.1962 0001161  76.4485  62.0016 15.49300222  4489
STARLINK-35722          
1 66218U 25244N   25323.58335648  .00040438  00000+0  73159-3 0  9993
2 66218  53.1602  25.1923 0001152  77.2301  63.1390 15.49300553  4486
STARLINK-35737          
1 66219U 25244P   25323.58335648  .00109895  00000+0  19613-2 0  9991
2 66219  53.1604  25.1846 0001044  77.6381  66.5972 15.49236399  4653
STARLINK-35677          
1 66220U 25244Q   25323.58335648  .00109230  00000+0  19496-2 0  9995
2 66220  53.1603  25.1767 0001150  75.6083  72.4602 15.49237194  4482
STARLINK-35704          
1 66221U 25244R   25323.58335648  .00110835  00000+0  19778-2 0  9992
2 66221  53.1603  25.1722 0001168  73.1832  76.8045 15.49235230  4486
STARLINK-35666          
1 66222U 25244S   25323.58335648  .00109074  00000+0  19469-2 0  9993
2 66222  53.1603  25.1644 0001048  85.8457  67.9719 15.49236384  4604
STARLINK-35664          
1 66223U 25244T   25323.58335648  .00109674  00000+0  19573-2 0  9996
2 66223  53.1603  25.1690 0001433  55.1793  96.7207 15.49237849  4606
