CCSDS_OMM_VERS = 2.0
CREATION_DATE  = 
ORIGINATOR     = 

OBJECT_NAME    = STARLINK-35710
OBJECT_ID      = 2025-244G
CENTER_NAME    = EARTH
REF_FRAME      = TEME
TIME_SYSTEM    = UTC
MEAN_ELEMENT_THEORY = SGP/SGP4

EPOCH          = 2025-11-19T14:00:01.999872
MEAN_MOTION    = 15.48961540
ECCENTRICITY   = .0001241
INCLINATION    = 53.1607
RA_OF_ASC_NODE = 25.2040
ARG_OF_PERICENTER = 74.0408
MEAN_ANOMALY   = 60.5191

EPHEMERIS_TYPE = 0
CLASSIFICATION_TYPE = U
NORAD_CAT_ID   = 66212
ELEMENT_SET_NO = 999
REV_AT_EPOCH   = 461
BSTAR          = -.41531205E-1
MEAN_MOTION_DOT = -.2033946E-1
MEAN_MOTION_DDOT = 0

CCSDS_OMM_VERS = 2.0
CREATION_DATE  = 
ORIGINATOR     = 

OBJECT_NAME    = STARLINK-34204
OBJECT_ID      = 2025-244H
CENTER_NAME    = EARTH
REF_FRAME      = TEME
TIME_SYSTEM    = UTC
MEAN_ELEMENT_THEORY = SGP/SGP4

EPOCH          = 2025-11-19T14:00:01.999872
MEAN_MOTION    = 15.46091479
ECCENTRICITY   = .00010354
INCLINATION    = 53.1605
RA_OF_ASC_NODE = 25.2165
ARG_OF_PERICENTER = 62.1556
MEAN_ANOMALY   = 66.4598

EPHEMERIS_TYPE = 0
CLASSIFICATION_TYPE = U
NORAD_CAT_ID   = 66213
ELEMENT_SET_NO = 999
REV_AT_EPOCH   = 480
BSTAR          = -.45278391E-1
MEAN_MOTION_DOT = -.2008064E-1
MEAN_MOTION_DDOT = 0

CCSDS_OMM_VERS = 2.0
CREATION_DATE  = 
ORIGINATOR     = 

OBJECT_NAME    = STARLINK-35714
OBJECT_ID      = 2025-244J
CENTER_NAME    = EARTH
REF_FRAME      = TEME
TIME_SYSTEM    = UTC
MEAN_ELEMENT_THEORY = SGP/SGP4

EPOCH          = 2025-11-19T14:00:01.999872
MEAN_MOTION    = 15.49238395
ECCENTRICITY   = .00012182
INCLINATION    = 53.1603
RA_OF_ASC_NODE = 25.1879
ARG_OF_PERICENTER = 77.5295
MEAN_ANOMALY   = 64.7855

EPHEMERIS_TYPE = 0
CLASSIFICATION_TYPE = U
NORAD_CAT_ID   = 66214
ELEMENT_SET_NO = 999
REV_AT_EPOCH   = 448
BSTAR          = .19484659E-2
MEAN_MOTION_DOT = .109171E-2
MEAN_MOTION_DDOT = 0

CCSDS_OMM_VERS = 2.0
CREATION_DATE  = 
ORIGINATOR     = 

OBJECT_NAME    = STARLINK-35712
OBJECT_ID      = 2025-244K
CENTER_NAME    = EARTH
REF_FRAME      = TEME
TIME_SYSTEM    = UTC
MEAN_ELEMENT_THEORY = SGP/SGP4

EPOCH          = 2025-11-19T14:00:01.999872
MEAN_MOTION    = 15.49237644
ECCENTRICITY   = .00010658
INCLINATION    = 53.1603
RA_OF_ASC_NODE = 25.1801
ARG_OF_PERICENTER = 77.1826
MEAN_ANOMALY   = 68.9672

EPHEMERIS_TYPE = 0
CLASSIFICATION_TYPE = U
NORAD_CAT_ID   = 66215
ELEMENT_SET_NO = 999
REV_AT_EPOCH   = 448
BSTAR          = .19575929E-2
MEAN_MOTION_DOT = .109689E-2
MEAN_MOTION_DDOT = 0

CCSDS_OMM_VERS = 2.0
CREATION_DATE  = 
ORIGINATOR     = 

OBJECT_NAME    = STARLINK-35709
OBJECT_ID      = 2025-244L
CENTER_NAME    = EARTH
REF_FRAME      = TEME
TIME_SYSTEM    = UTC
MEAN_ELEMENT_THEORY = SGP/SGP4

EPOCH          = 2025-11-19T14:00:01.999872
MEAN_MOTION    = 15.48960819
ECCENTRICITY   = .00014019
INCLINATION    = 53.1605
RA_OF_ASC_NODE = 25.2008
ARG_OF_PERICENTER = 61.3137
MEAN_ANOMALY   = 75.1573

EPHEMERIS_TYPE = 0
CLASSIFICATION_TYPE = U
NORAD_CAT_ID   = 66216
ELEMENT_SET_NO = 999
REV_AT_EPOCH   = 448
BSTAR          = -.42194626E-1
MEAN_MOTION_DOT = -.206291E-1
MEAN_MOTION_DDOT = 0

CCSDS_OMM_VERS = 2.0
CREATION_DATE  = 
ORIGINATOR     = 

OBJECT_NAME    = STARLINK-35700
OBJECT_ID      = 2025-244M
CENTER_NAME    = EARTH
REF_FRAME      = TEME
TIME_SYSTEM    = UTC
MEAN_ELEMENT_THEORY = SGP/SGP4

EPOCH          = 2025-11-19T14:00:01.999872
MEAN_MOTION    = 15.49300222
ECCENTRICITY   = .00011619
INCLINATION    = 53.1603
RA_OF_ASC_NODE = 25.1962
ARG_OF_PERICENTER = 76.4485
MEAN_ANOMALY   = 62.0016

EPHEMERIS_TYPE = 0
CLASSIFICATION_TYPE = U
NORAD_CAT_ID   = 66217
ELEMENT_SET_NO = 999
REV_AT_EPOCH   = 448
BSTAR          = .79387961E-3
MEAN_MOTION_DOT = .43939E-3
MEAN_MOTION_DDOT = 0

CCSDS_OMM_VERS = 2.0
CREATION_DATE  = 
ORIGINATOR     = 

OBJECT_NAME    = STARLINK-35722
OBJECT_ID      = 2025-244N
CENTER_NAME    = EARTH
REF_FRAME      = TEME
TIME_SYSTEM    = UTC
MEAN_ELEMENT_THEORY = SGP/SGP4

EPOCH          = 2025-11-19T14:00:01.999872
MEAN_MOTION    = 15.49300553
ECCENTRICITY   = .00011527
INCLINATION    = 53.1602
RA_OF_ASC_NODE = 25.1923
ARG_OF_PERICENTER = 77.2301
MEAN_ANOMALY   = 63.1390

EPHEMERIS_TYPE = 0
CLASSIFICATION_TYPE = U
NORAD_CAT_ID   = 66218
ELEMENT_SET_NO = 999
REV_AT_EPOCH   = 448
BSTAR          = .73158817E-3
MEAN_MOTION_DOT = .40438E-3
MEAN_MOTION_DDOT = 0

CCSDS_OMM_VERS = 2.0
CREATION_DATE  = 
ORIGINATOR     = 

OBJECT_NAME    = STARLINK-35737
OBJECT_ID      = 2025-244P
CENTER_NAME    = EARTH
REF_FRAME      = TEME
TIME_SYSTEM    = UTC
MEAN_ELEMENT_THEORY = SGP/SGP4

EPOCH          = 2025-11-19T14:00:01.999872
MEAN_MOTION    = 15.49236399
ECCENTRICITY   = .00010446
INCLINATION    = 53.1604
RA_OF_ASC_NODE = 25.1846
ARG_OF_PERICENTER = 77.6381
MEAN_ANOMALY   = 66.5972

EPHEMERIS_TYPE = 0
CLASSIFICATION_TYPE = U
NORAD_CAT_ID   = 66219
ELEMENT_SET_NO = 999
REV_AT_EPOCH   = 465
BSTAR          = .19612915E-2
MEAN_MOTION_DOT = .109895E-2
MEAN_MOTION_DDOT = 0

CCSDS_OMM_VERS = 2.0
CREATION_DATE  = 
ORIGINATOR     = 

OBJECT_NAME    = STARLINK-35677
OBJECT_ID      = 2025-244Q
CENTER_NAME    = EARTH
REF_FRAME      = TEME
TIME_SYSTEM    = UTC
MEAN_ELEMENT_THEORY = SGP/SGP4

EPOCH          = 2025-11-19T14:00:01.999872
MEAN_MOTION    = 15.49237194
ECCENTRICITY   = .00011503
INCLINATION    = 53.1603
RA_OF_ASC_NODE = 25.1767
ARG_OF_PERICENTER = 75.6083
MEAN_ANOMALY   = 72.4602

EPHEMERIS_TYPE = 0
CLASSIFICATION_TYPE = U
NORAD_CAT_ID   = 66220
ELEMENT_SET_NO = 999
REV_AT_EPOCH   = 448
BSTAR          = .19495726E-2
MEAN_MOTION_DOT = .10923E-2
MEAN_MOTION_DDOT = 0

CCSDS_OMM_VERS = 2.0
CREATION_DATE  = 
ORIGINATOR     = 

OBJECT_NAME    = STARLINK-35704
OBJECT_ID      = 2025-244R
CENTER_NAME    = EARTH
REF_FRAME      = TEME
TIME_SYSTEM    = UTC
MEAN_ELEMENT_THEORY = SGP/SGP4

EPOCH          = 2025-11-19T14:00:01.999872
MEAN_MOTION    = 15.49235230
ECCENTRICITY   = .00011687
INCLINATION    = 53.1603
RA_OF_ASC_NODE = 25.1722
ARG_OF_PERICENTER = 73.1832
MEAN_ANOMALY   = 76.8045

EPHEMERIS_TYPE = 0
CLASSIFICATION_TYPE = U
NORAD_CAT_ID   = 66221
ELEMENT_SET_NO = 999
REV_AT_EPOCH   = 448
BSTAR          = .19778369E-2
MEAN_MOTION_DOT = .110835E-2
MEAN_MOTION_DDOT = 0

CCSDS_OMM_VERS = 2.0
CREATION_DATE  = 
ORIGINATOR     = 

OBJECT_NAME    = STARLINK-35666
OBJECT_ID      = 2025-244S
CENTER_NAME    = EARTH
REF_FRAME      = TEME
TIME_SYSTEM    = UTC
MEAN_ELEMENT_THEORY = SGP/SGP4

EPOCH          = 2025-11-19T14:00:01.999872
MEAN_MOTION    = 15.49236384
ECCENTRICITY   = .00010486
INCLINATION    = 53.1603
RA_OF_ASC_NODE = 25.1644
ARG_OF_PERICENTER = 85.8457
MEAN_ANOMALY   = 67.9719

EPHEMERIS_TYPE = 0
CLASSIFICATION_TYPE = U
NORAD_CAT_ID   = 66222
ELEMENT_SET_NO = 999
REV_AT_EPOCH   = 460
BSTAR          = .19468903E-2
MEAN_MOTION_DOT = .109074E-2
MEAN_MOTION_DDOT = 0

CCSDS_OMM_VERS = 2.0
CREATION_DATE  = 
ORIGINATOR     = 

OBJECT_NAME    = STARLINK-35664
OBJECT_ID      = 2025-244T
CENTER_NAME    = EARTH
REF_FRAME      = TEME
TIME_SYSTEM    = UTC
MEAN_ELEMENT_THEORY = SGP/SGP4

EPOCH          = 2025-11-19T14:00:01.999872
MEAN_MOTION    = 15.49237849
ECCENTRICITY   = .0001433
INCLINATION    = 53.1603
RA_OF_ASC_NODE = 25.1690
ARG_OF_PERICENTER = 55.1793
MEAN_ANOMALY   = 96.7207

EPHEMERIS_TYPE = 0
CLASSIFICATION_TYPE = U
NORAD_CAT_ID   = 66223
ELEMENT_SET_NO = 999
REV_AT_EPOCH   = 460
BSTAR          = .19573041E-2
MEAN_MOTION_DOT = .109674E-2
MEAN_MOTION_DDOT = 0

